ATLAS CENTAUR 2         
1 00694U 63047A   26071.58739047  .00002063  00000+0  24206-3 0  9995
2 00694  30.3512 179.4478 0547690 105.8194 260.3459 14.12078557132032
THOR AGENA D R/B        
1 00733U 64002A   26071.52241626  .00000301  00000+0  12461-3 0  9999
2 00733  99.1225  85.0143 0032005 249.6247 110.1497 14.34022247238700
SL-3 R/B                
1 00877U 64053B   26071.63456881  .00000295  00000+0  81295-4 0  9991
2 00877  65.0783 322.6042 0079856 291.2926  67.9661 14.61371043267222
SL-8 R/B                
1 02802U 67045B   26071.20470159  .00000454  00000+0  13320-3 0  9992
2 02802  74.0141 343.3930 0064348 349.0512  10.9240 14.45625540 89385
SL-8 R/B                
1 03230U 68040B   26071.63788885  .00003121  00000+0  23186-3 0  9994
2 03230  74.0314 307.6704 0023811 130.2693 230.0582 15.03278862 90455
OAO 2                   
1 03597U 68110A   26071.54257183  .00000319  00000+0  91067-4 0  9990
2 03597  34.9924 249.2945 0006043 226.4971 133.5218 14.47309825 19518
ISIS 1                  
1 03669U 69009A   26071.28652619  .00000173  00000+0  10671-3 0  9991
2 03669  88.4538 155.0254 1707826  83.9236 295.2848 11.30415280348824
SERT 2                  
1 04327U 70009A   26071.59339539  .00000016  00000+0  78340-4 0  9996
2 04327  99.2760  14.5281 0005149 148.7404  25.1031 13.58730187780289
SL-3 R/B                
1 05118U 71028B   26071.54041839  .00045000  00000+0  52380-3 0  9992
2 05118  81.2358  48.5075 0013236 272.8060  87.1678 15.61392997989110
ASTEX 1                 
1 05560U 71089A   26071.23636536  .00000601  00000+0  15263-3 0  9997
2 05560  92.7117 152.5831 0017778  78.3795 281.9406 14.50772952862670
SL-8 R/B                
1 05730U 71119B   26071.44049191  .00012556  00000+0  65354-3 0  9996
2 05730  73.8866 170.5758 0548403 136.6437 227.9252 14.37935324655884
OAO 3 (COPERNICUS)      
1 06153U 72065A   26071.28639307  .00000454  00000+0  97451-4 0  9991
2 06153  35.0054 282.5219 0006692 188.5676 338.0292 14.60000714846577
