CCSDS_OMM_VERS = 2.0
CREATION_DATE  = 
ORIGINATOR     = 

OBJECT_NAME    = ATLAS CENTAUR 2
OBJECT_ID      = 1963-047A
CENTER_NAME    = EARTH
REF_FRAME      = TEME
TIME_SYSTEM    = UTC
MEAN_ELEMENT_THEORY = SGP/SGP4

EPOCH          = 2026-03-12T14:05:50.536608
MEAN_MOTION    = 14.12078557
ECCENTRICITY   = .05476908
INCLINATION    = 30.3512
RA_OF_ASC_NODE = 179.4478
ARG_OF_PERICENTER = 105.8194
MEAN_ANOMALY   = 260.3459

EPHEMERIS_TYPE = 0
CLASSIFICATION_TYPE = U
NORAD_CAT_ID   = 694
ELEMENT_SET_NO = 999
REV_AT_EPOCH   = 13203
BSTAR          = .24206108E-3
MEAN_MOTION_DOT = .2063E-4
MEAN_MOTION_DDOT = 0

CCSDS_OMM_VERS = 2.0
CREATION_DATE  = 
ORIGINATOR     = 

OBJECT_NAME    = THOR AGENA D R/B
OBJECT_ID      = 1964-002A
CENTER_NAME    = EARTH
REF_FRAME      = TEME
TIME_SYSTEM    = UTC
MEAN_ELEMENT_THEORY = SGP/SGP4

EPOCH          = 2026-03-12T12:32:16.764864
MEAN_MOTION    = 14.34022247
ECCENTRICITY   = .00320055
INCLINATION    = 99.1225
RA_OF_ASC_NODE = 85.0143
ARG_OF_PERICENTER = 249.6247
MEAN_ANOMALY   = 110.1497

EPHEMERIS_TYPE = 0
CLASSIFICATION_TYPE = U
NORAD_CAT_ID   = 733
ELEMENT_SET_NO = 999
REV_AT_EPOCH   = 23870
BSTAR          = .12460815E-3
MEAN_MOTION_DOT = .301E-5
MEAN_MOTION_DDOT = 0

CCSDS_OMM_VERS = 2.0
CREATION_DATE  = 
ORIGINATOR     = 

OBJECT_NAME    = SL-3 R/B
OBJECT_ID      = 1964-053B
CENTER_NAME    = EARTH
REF_FRAME      = TEME
TIME_SYSTEM    = UTC
MEAN_ELEMENT_THEORY = SGP/SGP4

EPOCH          = 2026-03-12T15:13:46.745184
MEAN_MOTION    = 14.61371043
ECCENTRICITY   = .00798567
INCLINATION    = 65.0783
RA_OF_ASC_NODE = 322.6042
ARG_OF_PERICENTER = 291.2926
MEAN_ANOMALY   = 67.9661

EPHEMERIS_TYPE = 0
CLASSIFICATION_TYPE = U
NORAD_CAT_ID   = 877
ELEMENT_SET_NO = 999
REV_AT_EPOCH   = 26722
BSTAR          = .81294748E-4
MEAN_MOTION_DOT = .295E-5
MEAN_MOTION_DDOT = 0

CCSDS_OMM_VERS = 2.0
CREATION_DATE  = 
ORIGINATOR     = 

OBJECT_NAME    = SL-8 R/B
OBJECT_ID      = 1967-045B
CENTER_NAME    = EARTH
REF_FRAME      = TEME
TIME_SYSTEM    = UTC
MEAN_ELEMENT_THEORY = SGP/SGP4

EPOCH          = 2026-03-12T04:54:46.217376
MEAN_MOTION    = 14.45625540
ECCENTRICITY   = .00643487
INCLINATION    = 74.0141
RA_OF_ASC_NODE = 343.3930
ARG_OF_PERICENTER = 349.0512
MEAN_ANOMALY   = 10.9240

EPHEMERIS_TYPE = 0
CLASSIFICATION_TYPE = U
NORAD_CAT_ID   = 2802
ELEMENT_SET_NO = 999
REV_AT_EPOCH   = 8938
BSTAR          = .13320398E-3
MEAN_MOTION_DOT = .454E-5
MEAN_MOTION_DDOT = 0

CCSDS_OMM_VERS = 2.0
CREATION_DATE  = 
ORIGINATOR     = 

OBJECT_NAME    = SL-8 R/B
OBJECT_ID      = 1968-040B
CENTER_NAME    = EARTH
REF_FRAME      = TEME
TIME_SYSTEM    = UTC
MEAN_ELEMENT_THEORY = SGP/SGP4

EPOCH          = 2026-03-12T15:18:33.596640
MEAN_MOTION    = 15.03278862
ECCENTRICITY   = .00238112
INCLINATION    = 74.0314
RA_OF_ASC_NODE = 307.6704
ARG_OF_PERICENTER = 130.2693
MEAN_ANOMALY   = 230.0582

EPHEMERIS_TYPE = 0
CLASSIFICATION_TYPE = U
NORAD_CAT_ID   = 3230
ELEMENT_SET_NO = 999
REV_AT_EPOCH   = 9045
BSTAR          = .23185864E-3
MEAN_MOTION_DOT = .3121E-4
MEAN_MOTION_DDOT = 0

CCSDS_OMM_VERS = 2.0
CREATION_DATE  = 
ORIGINATOR     = 

OBJECT_NAME    = OAO 2
OBJECT_ID      = 1968-110A
CENTER_NAME    = EARTH
REF_FRAME      = TEME
TIME_SYSTEM    = UTC
MEAN_ELEMENT_THEORY = SGP/SGP4

EPOCH          = 2026-03-12T13:01:18.206112
MEAN_MOTION    = 14.47309825
ECCENTRICITY   = .00060434
INCLINATION    = 34.9924
RA_OF_ASC_NODE = 249.2945
ARG_OF_PERICENTER = 226.4971
MEAN_ANOMALY   = 133.5218

EPHEMERIS_TYPE = 0
CLASSIFICATION_TYPE = U
NORAD_CAT_ID   = 3597
ELEMENT_SET_NO = 999
REV_AT_EPOCH   = 1951
BSTAR          = .9106749E-4
MEAN_MOTION_DOT = .319E-5
MEAN_MOTION_DDOT = 0

CCSDS_OMM_VERS = 2.0
CREATION_DATE  = 
ORIGINATOR     = 

OBJECT_NAME    = ISIS 1
OBJECT_ID      = 1969-009A
CENTER_NAME    = EARTH
REF_FRAME      = TEME
TIME_SYSTEM    = UTC
MEAN_ELEMENT_THEORY = SGP/SGP4

EPOCH          = 2026-03-12T06:52:35.862816
MEAN_MOTION    = 11.30415280
ECCENTRICITY   = .17078262
INCLINATION    = 88.4538
RA_OF_ASC_NODE = 155.0254
ARG_OF_PERICENTER = 83.9236
MEAN_ANOMALY   = 295.2848

EPHEMERIS_TYPE = 0
CLASSIFICATION_TYPE = U
NORAD_CAT_ID   = 3669
ELEMENT_SET_NO = 999
REV_AT_EPOCH   = 34882
BSTAR          = .1067097E-3
MEAN_MOTION_DOT = .173E-5
MEAN_MOTION_DDOT = 0

CCSDS_OMM_VERS = 2.0
CREATION_DATE  = 
ORIGINATOR     = 

OBJECT_NAME    = SERT 2
OBJECT_ID      = 1970-009A
CENTER_NAME    = EARTH
REF_FRAME      = TEME
TIME_SYSTEM    = UTC
MEAN_ELEMENT_THEORY = SGP/SGP4

EPOCH          = 2026-03-12T14:14:29.361696
MEAN_MOTION    = 13.58730187
ECCENTRICITY   = .00051493
INCLINATION    = 99.2760
RA_OF_ASC_NODE = 14.5281
ARG_OF_PERICENTER = 148.7404
MEAN_ANOMALY   = 25.1031

EPHEMERIS_TYPE = 0
CLASSIFICATION_TYPE = U
NORAD_CAT_ID   = 4327
ELEMENT_SET_NO = 999
REV_AT_EPOCH   = 78028
BSTAR          = .78339761E-4
MEAN_MOTION_DOT = .16E-6
MEAN_MOTION_DDOT = 0

CCSDS_OMM_VERS = 2.0
CREATION_DATE  = 
ORIGINATOR     = 

OBJECT_NAME    = SL-3 R/B
OBJECT_ID      = 1971-028B
CENTER_NAME    = EARTH
REF_FRAME      = TEME
TIME_SYSTEM    = UTC
MEAN_ELEMENT_THEORY = SGP/SGP4

EPOCH          = 2026-03-12T12:58:12.148896
MEAN_MOTION    = 15.61392997
ECCENTRICITY   = .00132368
INCLINATION    = 81.2358
RA_OF_ASC_NODE = 48.5075
ARG_OF_PERICENTER = 272.8060
MEAN_ANOMALY   = 87.1678

EPHEMERIS_TYPE = 0
CLASSIFICATION_TYPE = U
NORAD_CAT_ID   = 5118
ELEMENT_SET_NO = 999
REV_AT_EPOCH   = 98911
BSTAR          = .52380488E-3
MEAN_MOTION_DOT = .45E-3
MEAN_MOTION_DDOT = 0

CCSDS_OMM_VERS = 2.0
CREATION_DATE  = 
ORIGINATOR     = 

OBJECT_NAME    = ASTEX 1
OBJECT_ID      = 1971-089A
CENTER_NAME    = EARTH
REF_FRAME      = TEME
TIME_SYSTEM    = UTC
MEAN_ELEMENT_THEORY = SGP/SGP4

EPOCH          = 2026-03-12T05:40:21.967104
MEAN_MOTION    = 14.50772952
ECCENTRICITY   = .0017778
INCLINATION    = 92.7117
RA_OF_ASC_NODE = 152.5831
ARG_OF_PERICENTER = 78.3795
MEAN_ANOMALY   = 281.9406

EPHEMERIS_TYPE = 0
CLASSIFICATION_TYPE = U
NORAD_CAT_ID   = 5560
ELEMENT_SET_NO = 999
REV_AT_EPOCH   = 86267
BSTAR          = .15263333E-3
MEAN_MOTION_DOT = .601E-5
MEAN_MOTION_DDOT = 0

CCSDS_OMM_VERS = 2.0
CREATION_DATE  = 
ORIGINATOR     = 

OBJECT_NAME    = SL-8 R/B
OBJECT_ID      = 1971-119B
CENTER_NAME    = EARTH
REF_FRAME      = TEME
TIME_SYSTEM    = UTC
MEAN_ELEMENT_THEORY = SGP/SGP4

EPOCH          = 2026-03-12T10:34:18.501024
MEAN_MOTION    = 14.37935324
ECCENTRICITY   = .05484036
INCLINATION    = 73.8866
RA_OF_ASC_NODE = 170.5758
ARG_OF_PERICENTER = 136.6437
MEAN_ANOMALY   = 227.9252

EPHEMERIS_TYPE = 0
CLASSIFICATION_TYPE = U
NORAD_CAT_ID   = 5730
ELEMENT_SET_NO = 999
REV_AT_EPOCH   = 65588
BSTAR          = .65353518E-3
MEAN_MOTION_DOT = .12556E-3
MEAN_MOTION_DDOT = 0

CCSDS_OMM_VERS = 2.0
CREATION_DATE  = 
ORIGINATOR     = 

OBJECT_NAME    = OAO 3 (COPERNICUS)
OBJECT_ID      = 1972-065A
CENTER_NAME    = EARTH
REF_FRAME      = TEME
TIME_SYSTEM    = UTC
MEAN_ELEMENT_THEORY = SGP/SGP4

EPOCH          = 2026-03-12T06:52:24.361248
MEAN_MOTION    = 14.60000714
ECCENTRICITY   = .0006692
INCLINATION    = 35.0054
RA_OF_ASC_NODE = 282.5219
ARG_OF_PERICENTER = 188.5676
MEAN_ANOMALY   = 338.0292

EPHEMERIS_TYPE = 0
CLASSIFICATION_TYPE = U
NORAD_CAT_ID   = 6153
ELEMENT_SET_NO = 999
REV_AT_EPOCH   = 84657
BSTAR          = .97450663E-4
MEAN_MOTION_DOT = .454E-5
MEAN_MOTION_DDOT = 0

